{"type":"Feature","properties":{},"geometry":{"type":"Polygon","coordinates":[[[127.05372504474647,37.280928102318754],[127.05373265813611,37.28075567220617],[127.05375407739729,37.28049747322289],[127.05376046099022,37.280428578610476],[127.05378187654257,37.28021937962571],[127.05380098444594,37.280065479501225],[127.05381719261301,37.27995448026688],[127.05385239901725,37.279753173820176],[127.05388721133554,37.27958247545417],[127.0539077292055,37.27948822028989],[127.0539413395636,37.279343021861614],[127.05404567171973,37.278978222038646],[127.05407917830246,37.278880123575995],[127.0541896321628,37.278594584989264],[127.05424323990745,37.27847078739896],[127.05440241138945,37.27814492688005],[127.05452582403149,37.27791873226213],[127.05459786904369,37.27779208166852],[127.05465569092604,37.27769447913498],[127.05465803575252,37.277629120823335],[127.05465829043668,37.27762220825867],[127.05465929242354,37.27759570830635],[127.0546623292776,37.27753092900009],[127.05466713570762,37.27744502922855],[127.0546784521501,37.277242806409106],[127.05468507666036,37.27714729804393],[127.05469708748322,37.27700219861397],[127.05471849035895,37.27680795818561],[127.05474670546674,37.27660305951937],[127.05480744203169,37.27627454561586],[127.05484765435804,37.27610164749593],[127.05496082051978,37.27571253980448],[127.05500642920363,37.27558234189325],[127.05505533026188,37.27545056328623],[127.0550591725073,37.27544076304259],[127.05506927818121,37.27508247691696],[127.05533912608655,37.2741703607993],[127.05584067160531,37.27332255223959],[127.05655212851256,37.27257586607162],[127.05744259810842,37.27196272502372],[127.0578940339542,37.271764351283565],[127.05815489184559,37.27125443597638],[127.05872530571662,37.27055099118497],[127.05944968604727,37.26994388015496],[127.0603029227334,37.26945414510378],[127.06051401562384,37.26935535019063],[127.06162781528663,37.268955985265386],[127.06282343919698,37.26875645329123],[127.06451223979008,37.26862376117718],[127.0655802607749,37.26862055057058],[127.0666299649975,37.268777322978615],[127.06762385473886,37.26908847818402],[127.06852642508287,37.26954290101134],[127.06930543174441,37.27012435819334],[127.06993304268958,37.27081207801317],[127.07014791383436,37.27110160447274],[127.0702963307252,37.271274869394034],[127.07050424180372,37.27154776094282],[127.07076216900958,37.27192602039301],[127.07093788405948,37.27221601286937],[127.07119227731418,37.27270841260411],[127.07138200484287,37.2731480040747],[127.07148009982437,37.273398922685345],[127.07182016440514,37.27436770711697],[127.07190459520604,37.27464095821982],[127.07265758156201,37.2774548302418],[127.07290544178281,37.277571080872605],[127.07304698700456,37.27764530792702],[127.07465813777013,37.278300831158994],[127.0746860376974,37.27831226027446],[127.07528051463588,37.27855744726908],[127.07580108582599,37.27877222108044],[127.07584795145914,37.27879157998496],[127.07609904653472,37.27890182754781],[127.07697881671511,37.27931160641919],[127.07763825204724,37.27967085208092],[127.07836783943462,37.280131830511934],[127.07869304724778,37.28035380825472],[127.07927234362303,37.28078058954404],[127.07972309598371,37.28115319570032],[127.08010940139567,37.28151168175811],[127.08024691917225,37.2816443470631],[127.08074042997637,37.28213942868073],[127.08108045424864,37.28251947192011],[127.08138086840641,37.28289505987074],[127.08155291954567,37.283124992468274],[127.08187484045526,37.28358587909016],[127.08206109933064,37.28387696032221],[127.08234002488015,37.284355048293584],[127.08258956284791,37.2848606913775],[127.08284710321806,37.28549227972992],[127.08295413518182,37.28578912328369],[127.08321169115841,37.28660861140288],[127.08331010779388,37.28699189527493],[127.08369644725173,37.2889209771314],[127.08370998133579,37.28899222302963],[127.08386565842031,37.28985865214597],[127.08397663591444,37.290337800817696],[127.08407405607863,37.290686589753825],[127.08425633575565,37.29129685845901],[127.0844066989758,37.292195892457336],[127.08441651771429,37.29244569199],[127.08439178298293,37.29302922812832],[127.08436280022423,37.293262129498885],[127.08420420482959,37.29396345244958],[127.08411512304103,37.29423275654467],[127.08376712853028,37.29499644806881],[127.0832520902523,37.29569786875203],[127.08258681369722,37.296314125544086],[127.08179300941482,37.29682510446103],[127.08089658460179,37.29721412730882],[127.07999861651038,37.29744965892776],[127.07960036738093,37.29761691420893],[127.07859229422249,37.29786397500679],[127.07754406612639,37.29795773084025],[127.07748976288241,37.2979585308882],[127.07742864127668,37.297959431206664],[127.07707233617421,37.297937104651915],[127.07677729651887,37.2979708165925],[127.07562645411926,37.297914272186524],[127.07451398420363,37.2976731222977],[127.07348618326914,37.297257402734864],[127.07258582248511,37.29668441405853],[127.07185036719063,37.295978001267805],[127.07131041767879,37.295167561084405],[127.07118320873792,37.29481959840773],[127.07117219414567,37.29481233274529],[127.07098596802878,37.29474107567822],[127.07049943064138,37.294454194718305],[127.07032186823564,37.29445491004542],[127.06924645186764,37.29429130090788],[127.06823087074822,37.29396580773758],[127.06672094960868,37.293340447781745],[127.06545774765928,37.29282077810384],[127.06476292943684,37.29248233934376],[127.06438363931069,37.292266223050596],[127.06283616255942,37.29200342229338],[127.06189422731347,37.29177359271287],[127.06163276422075,37.29166737218676],[127.06152802629983,37.29167286378551],[127.06040891391717,37.29155254280253],[127.05934221255815,37.29125761764257],[127.05924010821602,37.291219915598866],[127.0587477463808,37.29101410735306],[127.05828623089502,37.29079749620405],[127.05783449561156,37.29056161401566],[127.05761319056946,37.290433607828625],[127.05713190212074,37.29012168850213],[127.05693750065087,37.289980882280275],[127.05654605868463,37.289668055862286],[127.05606146311747,37.28924073875733],[127.05540296877433,37.288530856885885],[127.05493138587033,37.28773234133034],[127.05475688938613,37.287171638980034],[127.0541927196266,37.28667248358537],[127.05418254459391,37.28666393345035],[127.05350417850188,37.28596858039543],[127.05300908572262,37.28518140194343],[127.05271623386915,37.28433256536437],[127.05263683868351,37.283454599823294],[127.05277393522138,37.282581149623695],[127.05312226266966,37.281745684884335],[127.05366846704098,37.28098021906612],[127.05372504474647,37.280928102318754]]]}}