{"type":"FeatureCollection","features":[{"type":"Feature","geometry":{"type":"MultiPolygon","coordinates":[[[[127.0988814,37.2805569],[127.0994071,37.2799167],[127.0996646,37.2800618],[127.0998535,37.2800626],[127.1002826,37.2802163],[127.1002826,37.2804895],[127.1008191,37.2802761],[127.1008234,37.2800362],[127.1009236,37.2800294],[127.1010727,37.2801359],[127.1014906,37.279976],[127.101372,37.2797033],[127.1011238,37.2796776],[127.1010229,37.27967],[127.100828,37.2796906],[127.1004693,37.2793788],[127.1007969,37.2790899],[127.100869,37.2790147],[127.100775,37.2789156],[127.1003268,37.2786389],[127.1002863,37.2785733],[127.1003832,37.2784357],[127.100599,37.2782331],[127.1005967,37.2781204],[127.1006815,37.2780698],[127.1007511,37.2781311],[127.100788,37.2781885],[127.1010462,37.2784426],[127.1015987,37.2788706],[127.1015525,37.2789583],[127.1015964,37.2790903],[127.1015784,37.2792566],[127.101492,37.279371],[127.1015524,37.2794778],[127.1014454,37.2795497],[127.1014759,37.2797126],[127.1015318,37.2798109],[127.1015626,37.2799826],[127.1016053,37.280241],[127.101613,37.2806517],[127.1013383,37.2806081],[127.1010122,37.280737],[127.100862,37.2806858],[127.1007761,37.2809505],[127.1001002,37.2809846],[127.0999972,37.2810606],[127.0998442,37.2811099],[127.0995812,37.2812226],[127.0995179,37.2813661],[127.0995467,37.2818192],[127.0996117,37.2821063],[127.0997458,37.2822998],[127.1000461,37.2825129],[127.1001431,37.2826663],[127.1000294,37.2826996],[127.0998213,37.2826492],[127.0996096,37.2825346],[127.0994148,37.2823223],[127.0990403,37.2814436],[127.0988814,37.2805569]]],[[[127.0906751,37.2906748],[127.0907813,37.290944],[127.0910029,37.291271],[127.0912319,37.2913879],[127.090953,37.2918573],[127.0914642,37.2917319],[127.0919899,37.2916209],[127.0924014,37.2912001],[127.0926589,37.2908672],[127.0926873,37.2913478],[127.0928161,37.2919794],[127.092698,37.2927817],[127.0931165,37.2930292],[127.0936522,37.2930085],[127.0940485,37.2932059],[127.0943297,37.2930108],[127.0947306,37.2925281],[127.0950065,37.292432],[127.0953192,37.2924385],[127.0954779,37.2923907],[127.0955492,37.2922806],[127.095549,37.292075],[127.0954658,37.2919313],[127.0950988,37.2920354],[127.0948331,37.2919453],[127.0946696,37.2915226],[127.0942966,37.2913563],[127.0941887,37.2910675],[127.0939798,37.2908863],[127.0937039,37.2909324],[127.0935576,37.2907891],[127.0936422,37.290571],[127.0939772,37.2905011],[127.0943122,37.290639],[127.094393,37.2904315],[127.0943539,37.2901276],[127.0950085,37.2900649],[127.0961779,37.2900222],[127.0963453,37.2900845],[127.0959805,37.2906479],[127.0956587,37.2907247],[127.0955412,37.2908081],[127.0955756,37.2909833],[127.0958201,37.2910128],[127.0958444,37.2913235],[127.0957836,37.2916149],[127.0958803,37.2917913],[127.0960457,37.2919382],[127.0963076,37.2918968],[127.0966779,37.2915356],[127.0969461,37.2909637],[127.0972465,37.2907417],[127.0974933,37.2910064],[127.0981091,37.2918317],[127.0980448,37.2919598],[127.0974976,37.2920451],[127.0972294,37.2923268],[127.0969985,37.2924822],[127.0969286,37.2925828],[127.0969808,37.2927338],[127.0970125,37.2928534],[127.0967096,37.2929582],[127.0959818,37.2928925],[127.0951777,37.2927742],[127.0949731,37.2927978],[127.0948006,37.2929458],[127.0944517,37.2933027],[127.0945318,37.2934174],[127.0946841,37.2935066],[127.0951802,37.2936327],[127.0954859,37.2937808],[127.0955772,37.293891],[127.0955406,37.2940593],[127.0953357,37.294132],[127.0951335,37.2943607],[127.0946132,37.2944985],[127.0934308,37.2946125],[127.0918973,37.2947369],[127.0908043,37.2948438],[127.0899915,37.2948942],[127.0893506,37.2945314],[127.0886441,37.2948136],[127.0883816,37.2948417],[127.0878625,37.2947683],[127.0877689,37.2946853],[127.0875767,37.2946033],[127.0873452,37.2946248],[127.0871435,37.2947027],[127.0869783,37.2948052],[127.0867435,37.2948131],[127.0857511,37.2946083],[127.0853874,37.2944116],[127.0849465,37.2942818],[127.0841267,37.2939293],[127.0844985,37.2931893],[127.0839702,37.2930079],[127.0835969,37.2937227],[127.0827627,37.2935071],[127.0820385,37.2933791],[127.0828485,37.2928606],[127.0832137,37.2927582],[127.0906751,37.2906748]]],[[[127.0983762,37.2820372],[127.098094,37.2820491],[127.0978146,37.2821238],[127.0973397,37.2823202],[127.0968195,37.2824675],[127.0963146,37.2823969],[127.0955049,37.2822312],[127.0951573,37.2821344],[127.0950519,37.282011],[127.0952123,37.2817251],[127.0954763,37.2816508],[127.0958089,37.281574],[127.0961243,37.2816312],[127.0964247,37.2818958],[127.0967959,37.2819582],[127.0970105,37.2819155],[127.0973002,37.2816338],[127.0973967,37.2813264],[127.0971071,37.2811216],[127.0969139,37.2809167],[127.0972251,37.2807545],[127.097622,37.2805581],[127.0980512,37.2803703],[127.098416,37.2804642],[127.0985399,37.2805332],[127.0988043,37.2821337],[127.0983762,37.2820372]]]]},"properties":{"id":"relation/4520496","height":12,"heightSource":"estimated","name":null,"leafType":null,"leafCycle":null,"evergreenShare":0.3}},{"type":"Feature","geometry":{"type":"Polygon","coordinates":[[[127.0677655,37.2839695],[127.0678811,37.2840392],[127.0679175,37.2841807],[127.0679303,37.2843283],[127.0679431,37.2844333],[127.0679064,37.2845259],[127.067607,37.2847536],[127.0675561,37.284859],[127.0676232,37.2850541],[127.0675944,37.2852276],[127.0674298,37.2853528],[127.0672885,37.2854154],[127.0671695,37.2855619],[127.0671262,37.2856949],[127.0671581,37.2858767],[127.067276,37.2860316],[127.0674262,37.2861773],[127.0675468,37.2861883],[127.0677788,37.2860999],[127.0679914,37.2860984],[127.0681771,37.2862654],[127.0670879,37.2880359],[127.0668336,37.287997],[127.0666279,37.2880028],[127.0662802,37.2879227],[127.0659075,37.2879053],[127.065901,37.287926],[127.0652358,37.2878107],[127.0640161,37.2876059],[127.0639318,37.2875199],[127.0640315,37.2871961],[127.0640247,37.2870074],[127.0641053,37.2869411],[127.0641923,37.2869034],[127.0649436,37.2869801],[127.0652441,37.2869887],[127.0652975,37.2867939],[127.0652657,37.2860679],[127.0649474,37.2858074],[127.0651704,37.2855065],[127.0651864,37.2853902],[127.0657497,37.2852319],[127.0660824,37.2847613],[127.066255,37.284369],[127.0660331,37.283967],[127.066144,37.2836924],[127.0665014,37.2838297],[127.0669451,37.2837317],[127.0668958,37.283967],[127.0666863,37.2842514],[127.0670191,37.2843788],[127.0672039,37.2843494],[127.0673272,37.2840749],[127.0675944,37.2839526],[127.0677655,37.2839695]],[[127.0641222,37.2871221],[127.0643287,37.2872119],[127.0647611,37.2873659],[127.0648256,37.2873095],[127.0648546,37.2871991],[127.0648417,37.2871683],[127.0648224,37.2871375],[127.0647417,37.2870835],[127.0646793,37.2870506],[127.0644448,37.287004],[127.0642401,37.2869418],[127.0641498,37.2869589],[127.0640931,37.287081],[127.0641222,37.2871221]]]},"properties":{"id":"relation/7755054","height":12,"heightSource":"estimated","name":null,"leafType":null,"leafCycle":null,"evergreenShare":0.45}},{"type":"Feature","geometry":{"type":"Polygon","coordinates":[[[127.0934584,37.2828975],[127.093983,37.2828151],[127.0940449,37.2825285],[127.0944445,37.2822464],[127.0963536,37.2826828],[127.0968032,37.2829925],[127.0976263,37.2833385],[127.0981585,37.2834947],[127.0983796,37.2836066],[127.0985984,37.2837167],[127.0986885,37.2838763],[127.0988575,37.2842943],[127.0988448,37.284645],[127.0987716,37.2849774],[127.0987703,37.2853598],[127.0984012,37.2853715],[127.0982621,37.2856063],[127.0982732,37.2858145],[127.0984416,37.2861273],[127.098493,37.286293],[127.0983467,37.2864363],[127.0981272,37.2864497],[127.097829,37.2863199],[127.0976038,37.2863557],[127.0972099,37.2862885],[127.0967982,37.286604],[127.0967128,37.2869949],[127.0966832,37.2875554],[127.0973442,37.287715],[127.0979303,37.2874796],[127.0982736,37.2876676],[127.0983411,37.2878378],[127.0979922,37.2880124],[127.0976151,37.2882094],[127.0970059,37.288274],[127.0964567,37.2884292],[127.0960588,37.2885241],[127.095637,37.2887204],[127.0952788,37.2887616],[127.0947933,37.2887331],[127.0943476,37.2886666],[127.0941367,37.2885115],[127.0939218,37.2885241],[127.0935478,37.2887173],[127.0933448,37.2889895],[127.0929609,37.2892376],[127.0921838,37.2896281],[127.0917304,37.2897197],[127.0915299,37.2899794],[127.0914536,37.2900539],[127.0900549,37.2903597],[127.0887808,37.2907313],[127.0869192,37.2912213],[127.0861964,37.2913734],[127.0859711,37.291271],[127.0863181,37.2910721],[127.0867151,37.2910806],[127.0869259,37.2909978],[127.087135,37.2906281],[127.0868373,37.2904296],[127.0871655,37.2899241],[127.0873544,37.2898299],[127.0875375,37.2896492],[127.0873658,37.2894614],[127.0870547,37.289009],[127.0865075,37.2888298],[127.0858745,37.2885481],[127.0855993,37.2886053],[127.0855993,37.2882894],[127.0855349,37.2878114],[127.0853861,37.287713],[127.0852326,37.2875658],[127.0850122,37.2875125],[127.0848553,37.2874896],[127.0845119,37.288181],[127.0842544,37.28877],[127.083482,37.2894358],[127.0831065,37.2898882],[127.0824413,37.2897516],[127.0823592,37.2900649],[127.0829992,37.290332],[127.0830029,37.2907904],[127.0828368,37.2909392],[127.0827524,37.2910149],[127.0819944,37.2907733],[127.0814113,37.2904942],[127.0811002,37.2900504],[127.0805637,37.2899394],[127.0803207,37.2895271],[127.0798985,37.2891541],[127.0797376,37.2887017],[127.0800702,37.2886334],[127.0805852,37.288642],[127.0810787,37.288659],[127.0813469,37.2882323],[127.0809285,37.2879079],[127.0806119,37.2876657],[127.0806904,37.2874027],[127.0806817,37.2871055],[127.0803835,37.2867296],[127.0803722,37.2865594],[127.0803103,37.2861967],[127.0801189,37.2859899],[127.0796518,37.285766],[127.0793029,37.2857571],[127.0790159,37.2857436],[127.0788864,37.285569],[127.0787232,37.2853362],[127.0785994,37.2850899],[127.0787401,37.2849242],[127.0783405,37.2845571],[127.077896,37.2844138],[127.0777278,37.2843903],[127.0775752,37.284369],[127.0773669,37.2844183],[127.0769786,37.2845705],[127.076731,37.2845212],[127.0765397,37.284266],[127.0764046,37.2839526],[127.0758531,37.2835496],[127.0751946,37.283272],[127.0750765,37.2830615],[127.0747951,37.2829451],[127.0744743,37.282869],[127.074328,37.2827346],[127.0740409,37.2826093],[127.0736688,37.2823475],[127.0737377,37.2819944],[127.0740525,37.2816897],[127.0739974,37.2814546],[127.0738365,37.2814461],[127.073643,37.2812284],[127.074194,37.2810961],[127.0749064,37.2806619],[127.0754243,37.2805156],[127.0759822,37.2801912],[127.075894,37.2808633],[127.0760015,37.2813731],[127.0763557,37.2814839],[127.0766715,37.2815483],[127.0769446,37.2816264],[127.0770755,37.28173],[127.0772391,37.2817784],[127.0774818,37.2817151],[127.0776052,37.2815631],[127.0777246,37.2814903],[127.0780111,37.2814586],[127.0781424,37.2815219],[127.0782459,37.2817214],[127.0784886,37.2817847],[127.0786279,37.2817879],[127.0788905,37.2817657],[127.0791054,37.2817182],[127.0791253,37.2815409],[127.0790099,37.2813953],[127.0789701,37.2812274],[127.0789502,37.2810501],[127.0790219,37.2809551],[127.0792129,37.2808697],[127.0793163,37.2807905],[127.0794676,37.2807113],[127.0795909,37.2805245],[127.0796387,37.2802617],[127.0800912,37.2803105],[127.0806116,37.2805523],[127.0809871,37.2807273],[127.0812768,37.280945],[127.0814806,37.2808995],[127.0816576,37.2809109],[127.0819151,37.2810987],[127.0823926,37.2810901],[127.0826312,37.2810723],[127.0827904,37.2811008],[127.0832122,37.2811103],[127.0835504,37.2811071],[127.0836166,37.2810904],[127.083606,37.2812143],[127.0833688,37.2812538],[127.082615,37.2812876],[127.0823531,37.2812932],[127.0821301,37.2813326],[127.0817054,37.281296],[127.0814895,37.2813467],[127.0812347,37.2813833],[127.0810754,37.2813101],[127.0807498,37.2811242],[127.0807038,37.2809468],[127.0806224,37.2808511],[127.0804065,37.2806624],[127.0800207,37.2805131],[127.079819,37.2805526],[127.079681,37.2807243],[127.0793377,37.2809693],[127.0791006,37.281113],[127.0792881,37.2814959],[127.0794616,37.2816058],[127.0795996,37.2816818],[127.0796987,37.2818029],[127.0797412,37.2819606],[127.0796668,37.2820845],[127.0794403,37.2821999],[127.0791289,37.2822028],[127.0786652,37.282107],[127.0782865,37.2819859],[127.0780211,37.2819578],[127.0777521,37.2819127],[127.0773628,37.2819127],[127.0770726,37.2818902],[127.0767965,37.2817888],[127.0764462,37.2816874],[127.0759188,37.2815354],[127.0756074,37.2814678],[127.0754693,37.2814931],[127.0754127,37.2817128],[127.0753313,37.2818986],[127.075303,37.2822056],[127.0754941,37.2823548],[127.0759224,37.2826083],[127.0763754,37.2827547],[127.0768355,37.2828758],[127.0775645,37.283163],[127.0779078,37.2833094],[127.0781414,37.2836643],[127.0786511,37.2838783],[127.0789555,37.283974],[127.0790864,37.2840866],[127.0791218,37.2843682],[127.0792174,37.2846357],[127.0793943,37.2848103],[127.07955,37.2852074],[127.0798155,37.2854608],[127.080449,37.2858128],[127.0807427,37.2861366],[127.080911,37.2862331],[127.0816771,37.2864745],[127.0821903,37.2866463],[127.0826681,37.2870236],[127.0831105,37.2871024],[127.0832414,37.2871926],[127.0832945,37.2873277],[127.0834502,37.2877191],[127.0839776,37.2877895],[127.0841935,37.2878064],[127.0844447,37.2877163],[127.0845686,37.2875699],[127.084742,37.2873615],[127.0849685,37.2871672],[127.0853791,37.2872432],[127.0857507,37.2874235],[127.0862533,37.2876403],[127.0869363,37.2878571],[127.0879096,37.2882006],[127.0883591,37.2883724],[127.0886564,37.2883414],[127.0891943,37.2883301],[127.0891943,37.2885638],[127.089159,37.2889721],[127.08912,37.2896057],[127.0888829,37.289814],[127.088713,37.2899351],[127.0886458,37.2901575],[127.0889572,37.2901716],[127.089612,37.2900027],[127.0902136,37.2898337],[127.0906277,37.289707],[127.0911303,37.2896197],[127.091378,37.2895015],[127.0917001,37.2892988],[127.0921567,37.2891636],[127.0926875,37.2889721],[127.0928079,37.2888679],[127.0928291,37.2886793],[127.0928114,37.2884906],[127.0928539,37.2883696],[127.0931936,37.2882766],[127.0940572,37.2881696],[127.0946589,37.288026],[127.095441,37.2880204],[127.0958763,37.2878036],[127.0962373,37.287705],[127.0963789,37.287553],[127.0964497,37.2873305],[127.0964178,37.2871165],[127.0963117,37.2869222],[127.0961666,37.2867336],[127.0961241,37.2865787],[127.0963789,37.2864745],[127.0965983,37.2863591],[127.0965417,37.2861817],[127.096747,37.2860465],[127.096931,37.285855],[127.0969416,37.2855988],[127.0970018,37.285458],[127.0972212,37.2853538],[127.097738,37.2852468],[127.0981627,37.2851482],[127.0983963,37.2850722],[127.0984989,37.2849173],[127.0985237,37.2846864],[127.0983927,37.284464],[127.0981202,37.2842359],[127.09783,37.2840275],[127.0970549,37.2841768],[127.0966054,37.2842838],[127.0958303,37.2844077],[127.0953986,37.2843035],[127.0952251,37.2841739],[127.0951685,37.2840219],[127.0947544,37.283684],[127.0946659,37.2835882],[127.0946624,37.2833798],[127.0946553,37.2830757],[127.0945208,37.283025],[127.0941705,37.2831151],[127.0939015,37.2832616],[127.0936254,37.2834249],[127.093091,37.2837009],[127.0924787,37.2840162],[127.0921779,37.2843147],[127.0918806,37.2844781],[127.091744,37.2844658],[127.0919478,37.2842439],[127.0923072,37.2838853],[127.0925111,37.2833945],[127.0925862,37.2829506],[127.092731,37.2827927],[127.0926988,37.2826177],[127.0926345,37.2824171],[127.0925325,37.2822079],[127.0927793,37.282114],[127.0929563,37.2820372],[127.0929563,37.2819134],[127.093246,37.2818579],[127.0933265,37.2820671],[127.0933318,37.2823146],[127.0933855,37.2825366],[127.0934123,37.2827201],[127.093423,37.2828268],[127.0934584,37.2828975]]]},"properties":{"id":"way/170931623","height":12,"heightSource":"estimated","name":null,"leafType":null,"leafCycle":null,"evergreenShare":0.25}},{"type":"Feature","geometry":{"type":"Polygon","coordinates":[[[127.0784389,37.2891731],[127.078154,37.2879307],[127.0782245,37.2877153],[127.0785915,37.2878214],[127.0788716,37.2881775],[127.0791283,37.2885776],[127.0791364,37.2888614],[127.0790568,37.2891211],[127.0784389,37.2891731]]]},"properties":{"id":"way/170931626","height":12,"heightSource":"estimated","name":null,"leafType":null,"leafCycle":null,"evergreenShare":0.2}},{"type":"Feature","geometry":{"type":"Polygon","coordinates":[[[127.0797914,37.2928951],[127.0795866,37.2926111],[127.0795008,37.2921844],[127.079769,37.2916125],[127.079769,37.291365],[127.0795651,37.2911174],[127.079364,37.2908345],[127.0791896,37.2904517],[127.078739,37.2901529],[127.0785781,37.2899139],[127.0788141,37.2896237],[127.0790072,37.2894701],[127.0793854,37.289648],[127.0799406,37.2901102],[127.0801579,37.290348],[127.0805093,37.2908187],[127.0810457,37.2907931],[127.0814319,37.2908272],[127.0814775,37.2912442],[127.0817753,37.291382],[127.0819646,37.2914603],[127.0819046,37.2915248],[127.0819631,37.2916726],[127.0817683,37.2917452],[127.0815532,37.2919429],[127.0814676,37.2921032],[127.0812941,37.2922032],[127.0811241,37.2922733],[127.0811151,37.2923542],[127.0811086,37.2924505],[127.0811045,37.2925723],[127.0804733,37.2927108],[127.0797914,37.2928951]]]},"properties":{"id":"way/170931634","height":12,"heightSource":"estimated","name":null,"leafType":null,"leafCycle":null,"evergreenShare":0.5}},{"type":"Feature","geometry":{"type":"Polygon","coordinates":[[[127.0774467,37.2893691],[127.0771753,37.2890335],[127.0771082,37.2884799],[127.0771511,37.2880702],[127.0773424,37.2880041],[127.0776798,37.288341],[127.0779655,37.2892721],[127.0774467,37.2893691]]]},"properties":{"id":"way/170931635","height":12,"heightSource":"estimated","name":null,"leafType":null,"leafCycle":null,"evergreenShare":0.25}},{"type":"Feature","geometry":{"type":"Polygon","coordinates":[[[127.0751877,37.2988101],[127.0753838,37.2982975],[127.0755519,37.2979185],[127.0756372,37.2974824],[127.0755564,37.2972422],[127.0758958,37.2969782],[127.0760964,37.2971127],[127.076322,37.2969224],[127.0763613,37.2969058],[127.0765438,37.2970182],[127.0766582,37.2970238],[127.076811,37.2970013],[127.0769744,37.29694],[127.0770066,37.2968429],[127.0768483,37.296682],[127.0767323,37.2965125],[127.0766015,37.2963269],[127.0769636,37.2959973],[127.077195,37.2958225],[127.0778213,37.2955881],[127.0780715,37.2955578],[127.0780364,37.2958456],[127.0781671,37.2960016],[127.0782605,37.2962319],[127.0784287,37.2965886],[127.0785968,37.2967446],[127.0786902,37.2968932],[127.0787836,37.2971087],[127.0789704,37.2975173],[127.0791759,37.2978517],[127.079428,37.2979928],[127.079839,37.2980003],[127.0799884,37.2985129],[127.0801472,37.2990182],[127.0800725,37.2990182],[127.0797923,37.2990182],[127.0795495,37.2990479],[127.0793066,37.2991593],[127.0792039,37.2996943],[127.0785069,37.2997207],[127.078355,37.2997314],[127.0782272,37.2997585],[127.078177,37.2997765],[127.0781214,37.2998031],[127.0780504,37.2998201],[127.0779622,37.2998284],[127.0778607,37.2998236],[127.0777598,37.2998097],[127.0776411,37.2997757],[127.0775135,37.2997267],[127.0773772,37.2996803],[127.0771771,37.2996569],[127.0770412,37.2996296],[127.0768847,37.2995923],[127.0766354,37.2995234],[127.0764579,37.2994045],[127.0761756,37.2992157],[127.0761095,37.2991828],[127.075924,37.2990904],[127.0757708,37.2990353],[127.0753778,37.2989649],[127.0752084,37.2989193],[127.0751877,37.2988101]]]},"properties":{"id":"way/362875816","height":12,"heightSource":"estimated","name":"정암수목공원","leafType":null,"leafCycle":null,"evergreenShare":0.4}},{"type":"Feature","geometry":{"type":"Polygon","coordinates":[[[127.0694961,37.2879581],[127.0693382,37.2878686],[127.0692903,37.2878302],[127.0692696,37.2878069],[127.0692296,37.2877784],[127.0691723,37.2877758],[127.0691221,37.287777],[127.0686896,37.2875461],[127.0686352,37.2875328],[127.0685667,37.2875382],[127.0685317,37.2875086],[127.0684831,37.2874664],[127.0684642,37.2873893],[127.068448,37.2872438],[127.0684451,37.2871749],[127.0684555,37.2871159],[127.0684762,37.2870728],[127.0685203,37.287027],[127.0685709,37.2869952],[127.0686614,37.2869636],[127.0687485,37.286926],[127.0688337,37.2869092],[127.0690047,37.2868369],[127.0690704,37.2867285],[127.0691055,37.2866205],[127.0691089,37.2864652],[127.0691371,37.2863735],[127.0691948,37.2863052],[127.0693101,37.2862678],[127.0694616,37.2862433],[127.0695743,37.286239],[127.0697634,37.2861419],[127.0698385,37.2859093],[127.0697071,37.2857269],[127.0699027,37.2854611],[127.0700328,37.2850729],[127.0699027,37.2845424],[127.0699766,37.2843099],[127.0701436,37.2842167],[127.0703481,37.2842842],[127.0705959,37.2845864],[127.0711873,37.284853],[127.0713337,37.2849823],[127.0717565,37.2852799],[127.071837,37.2853883],[127.071837,37.2855436],[127.0717628,37.2856936],[127.0716533,37.2857771],[127.0715035,37.2857965],[127.0714333,37.2858389],[127.0714375,37.2859372],[127.0715629,37.2859992],[127.0716539,37.285971],[127.0717161,37.2859582],[127.0718514,37.2860131],[127.0720139,37.2861209],[127.0720472,37.2862662],[127.0721631,37.2863754],[127.0722164,37.2865605],[127.072169,37.2867103],[127.0719521,37.2870824],[127.0718812,37.287151],[127.0717364,37.2872101],[127.0715219,37.287265],[127.0713289,37.2872639],[127.0707751,37.2871215],[127.0706358,37.2871366],[127.0704643,37.2870813],[127.070336,37.2870263],[127.0702609,37.2869786],[127.0701663,37.2869024],[127.0701456,37.2868707],[127.0701304,37.2867817],[127.0701058,37.2866519],[127.0700356,37.2865879],[127.069949,37.286557],[127.0698499,37.2865646],[127.0697711,37.2866053],[127.0697314,37.2866921],[127.0697622,37.2868912],[127.0697365,37.2870092],[127.0697103,37.2871664],[127.0697294,37.2872876],[127.0696987,37.2874421],[127.0696734,37.2875412],[127.0696598,37.2876365],[127.0696772,37.287744],[127.0696413,37.2878391],[127.0695572,37.2879385],[127.0694961,37.2879581]]]},"properties":{"id":"way/376926300","height":12,"heightSource":"estimated","name":null,"leafType":null,"leafCycle":null,"evergreenShare":0.25}},{"type":"Feature","geometry":{"type":"Polygon","coordinates":[[[127.086921,37.2968799],[127.0870217,37.296737],[127.0871244,37.2965331],[127.0871749,37.2963136],[127.0872059,37.2961215],[127.087164,37.2959998],[127.0870792,37.295908],[127.0870275,37.2957841],[127.0870315,37.2956303],[127.0870636,37.2953488],[127.0876193,37.2954272],[127.0879659,37.2954544],[127.0883961,37.2954021],[127.0886604,37.2953873],[127.0887665,37.2952716],[127.0887405,37.2951525],[127.0886847,37.2949094],[127.0886441,37.2948136],[127.0892707,37.2945624],[127.0893458,37.2945352],[127.0899915,37.2948942],[127.0896587,37.2950619],[127.0896239,37.2952332],[127.0896426,37.2953449],[127.0897059,37.2954927],[127.0899087,37.2954784],[127.0902705,37.2956304],[127.08999,37.2958439],[127.0899412,37.2961414],[127.0901607,37.2962643],[127.0905388,37.2961899],[127.0908356,37.2961123],[127.0909413,37.2963161],[127.0908193,37.2965004],[127.0905388,37.2965748],[127.0906039,37.2967559],[127.09086,37.2971278],[127.0905104,37.2971375],[127.0903843,37.2968723],[127.0900794,37.2967947],[127.0902014,37.2970761],[127.0900672,37.2971828],[127.090055,37.2976485],[127.0897704,37.2976],[127.0896485,37.2977908],[127.0889533,37.2977132],[127.0879003,37.2978749],[127.0870385,37.2979687],[127.086326,37.2983048],[127.0857335,37.2989257],[127.085285,37.2992629],[127.085247,37.299816],[127.0850108,37.2999693],[127.0843691,37.2999611],[127.0839894,37.300026],[127.0840156,37.3004768],[127.0841178,37.300792],[127.0842469,37.3010499],[127.0844721,37.301158],[127.0847185,37.3011197],[127.0851843,37.3011968],[127.0856431,37.3015274],[127.0856981,37.3030766],[127.0849448,37.3024837],[127.0847343,37.3022663],[127.0849271,37.3020545],[127.0846051,37.3017887],[127.0840044,37.3018154],[127.0837736,37.3018082],[127.0835896,37.3017787],[127.083469,37.3016973],[127.0833788,37.3015644],[127.0833239,37.3014089],[127.0831519,37.3004572],[127.0831249,37.3002628],[127.0829917,37.3000684],[127.0827537,37.3000118],[127.0824449,37.3001551],[127.0821573,37.2999943],[127.0818913,37.2997342],[127.0817245,37.2994515],[127.0816532,37.2991407],[127.0817663,37.2990362],[127.0822051,37.2989655],[127.0829764,37.2986553],[127.0838814,37.2984671],[127.0839601,37.2983441],[127.0839733,37.2981059],[127.0840543,37.2980182],[127.0842606,37.2980542],[127.0842937,37.2984752],[127.0845928,37.2985372],[127.0849712,37.2985285],[127.0853675,37.2984044],[127.0854381,37.2980944],[127.0852253,37.2977779],[127.0849813,37.2977229],[127.0841787,37.2977942],[127.0840341,37.297807],[127.083595,37.2979557],[127.0833389,37.2981045],[127.082229,37.2983083],[127.0814006,37.2983954],[127.0813191,37.2982106],[127.0812842,37.2981316],[127.0811842,37.2979202],[127.0810256,37.297186],[127.0808915,37.2965392],[127.0807749,37.2960549],[127.0806328,37.2957099],[127.081447,37.2957817],[127.0818426,37.2958291],[127.0821087,37.2958892],[127.0825877,37.2960144],[127.0830081,37.2961219],[127.0830817,37.2966431],[127.0831517,37.296748],[127.083286,37.2968529],[127.083437,37.2968739],[127.0835987,37.2968608],[127.0837397,37.2967747],[127.0838133,37.2966719],[127.0838815,37.2964965],[127.0839857,37.2963752],[127.0841273,37.2962426],[127.0844138,37.2963064],[127.0850082,37.2964851],[127.0851241,37.2965695],[127.0852549,37.2967761],[127.0853963,37.2969528],[127.0855563,37.2970378],[127.08577,37.2971185],[127.085951,37.2971682],[127.0861856,37.2972649],[127.0863866,37.2972789],[127.0865437,37.2972588],[127.0866572,37.2971867],[127.086921,37.2968799]]]},"properties":{"id":"way/378246000","height":12,"heightSource":"estimated","name":null,"leafType":null,"leafCycle":null,"evergreenShare":0.2}},{"type":"Feature","geometry":{"type":"Polygon","coordinates":[[[127.0656553,37.2799511],[127.0654201,37.2796131],[127.0653973,37.2788645],[127.0653572,37.2785225],[127.0653337,37.2783224],[127.0653215,37.2782186],[127.0653131,37.2781641],[127.0652927,37.2780314],[127.065276,37.2779228],[127.0654696,37.2777761],[127.0655874,37.2776869],[127.065658,37.2776334],[127.0659056,37.2774459],[127.0661939,37.2774158],[127.0662546,37.2776753],[127.0662448,37.2778201],[127.0661742,37.2779608],[127.066117,37.2783106],[127.0661074,37.2786778],[127.06613,37.2792072],[127.0656553,37.2799511]]]},"properties":{"id":"way/491438513","height":12,"heightSource":"estimated","name":null,"leafType":null,"leafCycle":null,"evergreenShare":0.6}},{"type":"Feature","geometry":{"type":"Polygon","coordinates":[[[127.0762096,37.2849009],[127.0758916,37.2850068],[127.0756254,37.2849009],[127.0751152,37.2845538],[127.0747831,37.2840063],[127.074869,37.2838758],[127.0751993,37.2837955],[127.0762096,37.2849009]]]},"properties":{"id":"way/491449618","height":12,"heightSource":"estimated","name":null,"leafType":null,"leafCycle":null,"evergreenShare":0.15}},{"type":"Feature","geometry":{"type":"Polygon","coordinates":[[[127.0716463,37.2890186],[127.0716074,37.2889332],[127.0715457,37.2888287],[127.0715833,37.2887433],[127.0716155,37.2886579],[127.0716155,37.2885768],[127.0715162,37.288564],[127.071476,37.288596],[127.071425,37.2886153],[127.0715136,37.2885107],[127.0716316,37.2884147],[127.0717496,37.2883485],[127.0720044,37.2883272],[127.0721519,37.2882866],[127.0722592,37.2882482],[127.072514,37.2881757],[127.0726696,37.2881159],[127.0728225,37.2880562],[127.0729861,37.2879985],[127.0731497,37.2879516],[127.073265,37.2879559],[127.0733857,37.2880199],[127.0735333,37.2881159],[127.0736406,37.2881991],[127.0737022,37.2882738],[127.0737908,37.2883763],[127.0739195,37.2884765],[127.0740938,37.288564],[127.0741931,37.2886281],[127.0742145,37.288707],[127.0742253,37.2887838],[127.0742306,37.2888457],[127.0742508,37.2889289],[127.0742856,37.2889887],[127.0743473,37.2890911],[127.0743795,37.2891914],[127.0743822,37.2893024],[127.0743661,37.2894069],[127.0743312,37.2895008],[127.0742561,37.2895926],[127.0741971,37.2896395],[127.0741368,37.2896801],[127.074173,37.289806],[127.0743017,37.28987],[127.0744466,37.289934],[127.0745914,37.2900258],[127.0747094,37.2900706],[127.0747228,37.2901837],[127.0746933,37.2902754],[127.0746021,37.2903523],[127.0745082,37.2903885],[127.0744224,37.2904568],[127.0743446,37.2905486],[127.0742642,37.2906275],[127.074181,37.2906873],[127.0741086,37.2907577],[127.0740254,37.2907897],[127.0739021,37.2907876],[127.0738752,37.290698],[127.0736043,37.2904462],[127.0735587,37.2903501],[127.073422,37.2901303],[127.0732449,37.289934],[127.0728909,37.2896993],[127.0720835,37.2894219],[127.0719655,37.2893707],[127.0718958,37.2893109],[127.0718073,37.289217],[127.0717348,37.2891274],[127.0716463,37.2890186]]]},"properties":{"id":"way/591961198","height":12,"heightSource":"estimated","name":null,"leafType":null,"leafCycle":null,"evergreenShare":0.5}},{"type":"Feature","geometry":{"type":"Polygon","coordinates":[[[127.0749632,37.2901196],[127.0750303,37.2901004],[127.0750973,37.2900812],[127.0751724,37.2900641],[127.0752341,37.2900876],[127.0753012,37.2901047],[127.0753682,37.2901004],[127.0754299,37.2901153],[127.0755345,37.2902348],[127.0756203,37.2903522],[127.0756767,37.2904589],[127.0756928,37.2905763],[127.0757223,37.290732],[127.0757571,37.2908601],[127.075851,37.2911097],[127.0758591,37.2911865],[127.0758564,37.2912847],[127.0758859,37.2913999],[127.0759234,37.291481],[127.0759047,37.2915472],[127.0758242,37.2916048],[127.0757652,37.291624],[127.0756981,37.2916496],[127.0756096,37.2916859],[127.0755104,37.2916923],[127.0754138,37.2916688],[127.0752482,37.2916375],[127.0751308,37.2915592],[127.0749873,37.2914538],[127.0747755,37.2913156],[127.0746413,37.2911972],[127.0745421,37.2911268],[127.0745367,37.29105],[127.0745394,37.2909326],[127.0745421,37.2908579],[127.0745636,37.290764],[127.074636,37.2906467],[127.0746762,37.2905933],[127.0747218,37.2905677],[127.0747567,37.2905442],[127.0747942,37.290508],[127.0747942,37.2904696],[127.074762,37.2904098],[127.0747567,37.290333],[127.0747996,37.2902562],[127.074864,37.2901943],[127.0749632,37.2901196]]]},"properties":{"id":"way/593075841","height":12,"heightSource":"estimated","name":null,"leafType":null,"leafCycle":null,"evergreenShare":0.35}},{"type":"Feature","geometry":{"type":"Polygon","coordinates":[[[127.062871,37.291829],[127.0629837,37.2917351],[127.0631285,37.2916626],[127.0632573,37.2916412],[127.0633753,37.2916284],[127.0635308,37.2916412],[127.0636971,37.2916924],[127.0638688,37.2917991],[127.064019,37.2919015],[127.0641209,37.2919954],[127.0641746,37.2921064],[127.0641585,37.2922472],[127.0640566,37.2924094],[127.0639385,37.2925545],[127.0638098,37.2926825],[127.0636596,37.292785],[127.0635308,37.2928532],[127.0634772,37.2930026],[127.0633806,37.2931605],[127.0633216,37.2933056],[127.063209,37.2934678],[127.0631607,37.2936427],[127.0631392,37.2938049],[127.0629408,37.2941805],[127.0628066,37.2943938],[127.0627315,37.294556],[127.0626082,37.2947438],[127.0624472,37.2947694],[127.0622917,37.2948291],[127.0620878,37.2949188],[127.0619215,37.294923],[127.0618089,37.2948932],[127.0617499,37.2947993],[127.0616265,37.2948078],[127.061487,37.2948249],[127.0614012,37.2948675],[127.0614065,37.2949358],[127.0615192,37.294987],[127.0616533,37.2951151],[127.0618196,37.2951535],[127.062061,37.2951492],[127.0622058,37.2951919],[127.0622112,37.29529],[127.06212,37.2953498],[127.0620771,37.2954565],[127.0620073,37.295593],[127.0618947,37.2956912],[127.0617284,37.2956869],[127.061546,37.2956186],[127.0613904,37.2956058],[127.0612885,37.2956912],[127.0612456,37.2958491],[127.0611437,37.2959344],[127.0609291,37.2959387],[127.0607467,37.2959003],[127.0606019,37.2959558],[127.0603927,37.2960881],[127.0600708,37.2961649],[127.0597167,37.2962417],[127.0594271,37.29631],[127.0591964,37.2963569],[127.0590194,37.2963441],[127.0588906,37.2962545],[127.0586492,37.2962459],[127.0584615,37.2963014],[127.0581932,37.296374],[127.0580484,37.2963185],[127.057866,37.2961222],[127.0577802,37.2959302],[127.0579304,37.2958064],[127.0581772,37.295721],[127.0584025,37.295593],[127.0584293,37.2954266],[127.058499,37.2952516],[127.0584776,37.295098],[127.0583005,37.29497],[127.0580216,37.2948633],[127.0576836,37.2948206],[127.0574905,37.2947737],[127.0573832,37.2946712],[127.0574959,37.294428],[127.0576139,37.2942573],[127.0576594,37.2941293],[127.0577359,37.2940077],[127.0578352,37.2939202],[127.0580605,37.2939341],[127.0583434,37.2939489],[127.0586049,37.2939564],[127.0588933,37.293854],[127.0590609,37.2937441],[127.0592098,37.2935456],[127.0593305,37.2934037],[127.0595022,37.2932203],[127.0597266,37.2931145],[127.0601155,37.2931177],[127.0603659,37.2930581],[127.0605737,37.2928874],[127.0607923,37.2926303],[127.0612563,37.2924297],[127.0615809,37.2922995],[127.0619859,37.292212],[127.0622018,37.292165],[127.0623668,37.2922259],[127.0624593,37.292387],[127.0623172,37.2924904],[127.0621535,37.2926527],[127.0620395,37.2926815],[127.0619483,37.2928063],[127.0620449,37.2929044],[127.0622112,37.2930367],[127.0623882,37.2930794],[127.0625546,37.2930676],[127.0626537,37.2929738],[127.0628079,37.292976],[127.0629649,37.2930282],[127.0630467,37.2931477],[127.0631138,37.2932459],[127.0631714,37.2932533],[127.0632223,37.2931359],[127.0632157,37.2930325],[127.0632251,37.2928319],[127.0632197,37.2926697],[127.0631714,37.2925033],[127.063048,37.2922344],[127.0629944,37.2921149],[127.0629408,37.2920509],[127.0629032,37.29194],[127.062871,37.291829]]]},"properties":{"id":"way/593284550","height":12,"heightSource":"estimated","name":null,"leafType":null,"leafCycle":null,"evergreenShare":0.45}},{"type":"Feature","geometry":{"type":"Polygon","coordinates":[[[127.075777,37.2967212],[127.0757343,37.2967293],[127.0757242,37.2967147],[127.0756845,37.2966953],[127.0756419,37.2966614],[127.075589,37.2966299],[127.0755717,37.2965894],[127.0755382,37.2964827],[127.075527,37.2963881],[127.0755026,37.2963258],[127.0754864,37.2962329],[127.075464,37.2961132],[127.0754701,37.2960728],[127.0755118,37.2959822],[127.0755524,37.2959539],[127.0756358,37.2959353],[127.0757648,37.295882],[127.075835,37.2958545],[127.0758868,37.2958254],[127.0759488,37.2957857],[127.0760443,37.2957283],[127.076087,37.2956814],[127.0761551,37.2956079],[127.0761795,37.2955658],[127.0762263,37.2955116],[127.0762801,37.2954591],[127.0763238,37.2954251],[127.0763543,37.2954154],[127.0763747,37.2954437],[127.0763553,37.2954728],[127.0763055,37.2954963],[127.0762669,37.2955311],[127.0762263,37.2955537],[127.0762141,37.295586],[127.0761897,37.2956022],[127.0761694,37.2956467],[127.0761622,37.2957162],[127.0761612,37.2957599],[127.0761429,37.2958003],[127.0760779,37.2957809],[127.0760016,37.2958051],[127.0759397,37.2958286],[127.0758777,37.2958892],[127.0757892,37.2959345],[127.0757394,37.2959515],[127.0756693,37.2959927],[127.0756154,37.2960469],[127.0755788,37.2960728],[127.0755666,37.2961092],[127.075591,37.2961941],[127.0756276,37.2962547],[127.0756297,37.2963145],[127.0756012,37.2963501],[127.0756032,37.2963905],[127.075651,37.2964471],[127.0756459,37.2965118],[127.0756398,37.2965417],[127.0756754,37.2965862],[127.0757567,37.2966129],[127.0758329,37.296621],[127.0758583,37.2966307],[127.0758533,37.2966541],[127.0758258,37.2966945],[127.075777,37.2967212]]]},"properties":{"id":"way/763168827","height":12,"heightSource":"estimated","name":null,"leafType":null,"leafCycle":null,"evergreenShare":0.45}},{"type":"Feature","geometry":{"type":"Polygon","coordinates":[[[127.0766387,37.2960009],[127.0765592,37.296019],[127.0765027,37.2960037],[127.0764863,37.2959715],[127.0765535,37.2959434],[127.0765897,37.2959396],[127.0766107,37.2959331],[127.0766341,37.2959211],[127.0767333,37.2958393],[127.0767567,37.2958031],[127.0767602,37.2957669],[127.0767602,37.2957195],[127.0768115,37.2957028],[127.0768337,37.2957102],[127.0768699,37.2957251],[127.0768886,37.2957437],[127.0769049,37.2957595],[127.0769049,37.2957845],[127.0768792,37.2958152],[127.0768325,37.2958431],[127.0767905,37.2958765],[127.0767135,37.2959573],[127.0766656,37.2959926],[127.0766387,37.2960009]]]},"properties":{"id":"way/763168828","height":12,"heightSource":"estimated","name":null,"leafType":null,"leafCycle":null,"evergreenShare":0.15}},{"type":"Feature","geometry":{"type":"Polygon","coordinates":[[[127.0779213,37.2895115],[127.077926,37.2895542],[127.077961,37.2895784],[127.0779774,37.2896341],[127.0780241,37.2897177],[127.0780474,37.2898162],[127.0780614,37.2899555],[127.0780871,37.2901078],[127.0781385,37.2902713],[127.0781315,37.2904199],[127.0781385,37.2904886],[127.0782319,37.290589],[127.0782926,37.2909846],[127.0784233,37.2913617],[127.0786101,37.2919766],[127.0786358,37.2921122],[127.0785961,37.2921661],[127.078477,37.2921048],[127.0783533,37.2921011],[127.0782716,37.2920101],[127.0781782,37.2917556],[127.0780264,37.2914063],[127.077975,37.2912113],[127.0779587,37.2909921],[127.0778209,37.2906986],[127.0777439,37.2904292],[127.0776664,37.2900624],[127.0776558,37.289939],[127.0776123,37.2897519],[127.0776108,37.2896397],[127.0776341,37.2895431],[127.0777252,37.2894855],[127.0779166,37.2894521],[127.0779213,37.2895115]]]},"properties":{"id":"way/764225418","height":12,"heightSource":"estimated","name":null,"leafType":null,"leafCycle":null,"evergreenShare":0.2}}]}