{"type":"FeatureCollection","features":[{"type":"Feature","geometry":{"type":"Polygon","coordinates":[[[127.0734122,37.2878514],[127.0730413,37.2878983],[127.0723678,37.2881842],[127.0721619,37.2882047],[127.0719071,37.2882184],[127.0718114,37.2882527],[127.0717209,37.2882956],[127.0715949,37.2883846],[127.0714657,37.288486],[127.0713404,37.288601],[127.0712473,37.2887373],[127.0711415,37.2888648],[127.0710948,37.28894],[127.0710266,37.2890024],[127.0709307,37.2890599],[127.0708624,37.2890896],[127.0707552,37.2891171],[127.0706284,37.289137],[127.0705023,37.2891178],[127.0704058,37.2890836],[127.0703387,37.2890516],[127.070269,37.2890132],[127.07021,37.2889791],[127.0701377,37.2889464],[127.0696573,37.2889591],[127.0695147,37.2889164],[127.0693692,37.2888906],[127.0692175,37.2888817],[127.0691073,37.2888383],[127.069037,37.2887857],[127.0690145,37.2886976],[127.0690339,37.2886237],[127.0690941,37.2885272],[127.0691824,37.288411],[127.0693066,37.2883056],[127.069405,37.2883241],[127.0695413,37.2882903],[127.0697757,37.2882437],[127.069888,37.2882017],[127.0699036,37.2881091],[127.069967,37.2880348],[127.0700758,37.2879342],[127.0702079,37.2878522],[127.0702729,37.2877908],[127.0703222,37.287664],[127.0703403,37.2875382],[127.0703955,37.2873961],[127.0704722,37.2873139],[127.0706476,37.2872273],[127.0707623,37.2872169],[127.0708841,37.2872394],[127.0711342,37.2873638],[127.0715443,37.2873655],[127.0716735,37.2873416],[127.0718007,37.2872858],[127.0719178,37.2871716],[127.0720014,37.2871015],[127.0721692,37.2868217],[127.0722827,37.2866424],[127.0723355,37.2865443],[127.0723286,37.2864804],[127.0722573,37.2863951],[127.0722342,37.2862586],[127.0721661,37.2862087],[127.0721165,37.2861495],[127.0721095,37.2860611],[127.0721023,37.2859821],[127.0719034,37.285912],[127.0719115,37.285813],[127.0720471,37.2856325],[127.0720093,37.2855453],[127.0720495,37.2853994],[127.0719258,37.2852701],[127.0719166,37.2851674],[127.0716245,37.285097],[127.0714515,37.2849467],[127.0714958,37.284901],[127.0714353,37.284813],[127.0713031,37.2847606],[127.0712274,37.2847641],[127.0711933,37.2847494],[127.0712245,37.2847164],[127.0712379,37.2846801],[127.0712279,37.284654],[127.0711757,37.2846224],[127.0710655,37.2845702],[127.0709537,37.2845159],[127.0717048,37.2836509],[127.0718209,37.2836095],[127.0719385,37.2836263],[127.0721927,37.2837187],[127.072369,37.2838432],[127.072789,37.2839752],[127.073014,37.2838692],[127.0733193,37.2838186],[127.0735889,37.2837281],[127.0740342,37.2839432],[127.074271,37.2840663],[127.0744147,37.2842671],[127.0744928,37.2843909],[127.0746895,37.2846636],[127.0748275,37.2848078],[127.0749445,37.2849293],[127.0749666,37.285017],[127.0749596,37.2851827],[127.0750125,37.2853063],[127.075249,37.285545],[127.0754431,37.2858117],[127.0755278,37.2864267],[127.0757149,37.2868619],[127.075909,37.2869518],[127.0760466,37.2869855],[127.0760219,37.287022],[127.0757819,37.2869574],[127.0757361,37.2869995],[127.0757713,37.2871203],[127.0758702,37.2871793],[127.0758631,37.2873253],[127.0758984,37.2874713],[127.0759808,37.2875924],[127.0763877,37.2880243],[127.0764596,37.2885215],[127.0766749,37.2889202],[127.0767071,37.2892398],[127.0769951,37.2895404],[127.0770571,37.2897636],[127.0770579,37.2900464],[127.0771247,37.2902642],[127.0773264,37.2905533],[127.0773772,37.2907442],[127.0774269,37.2909373],[127.0773117,37.2910955],[127.0772619,37.2911621],[127.0772965,37.2912661],[127.0773678,37.2913276],[127.0775469,37.2915369],[127.0776402,37.2916822],[127.0776695,37.2918048],[127.0777167,37.2919531],[127.0776736,37.292029],[127.0777319,37.292211],[127.0779815,37.2924412],[127.077885,37.2925346],[127.0777091,37.2925603],[127.0776351,37.2926799],[127.0776314,37.2927675],[127.0776054,37.2929054],[127.0775116,37.292946],[127.0774673,37.2930744],[127.0774394,37.2934619],[127.0773851,37.2934627],[127.077324,37.2934636],[127.0773052,37.2930411],[127.0772819,37.2928709],[127.0771748,37.2926981],[127.0769785,37.2925472],[127.0767178,37.2924047],[127.0765611,37.2922052],[127.0764838,37.2920111],[127.0765059,37.2918587],[127.0766133,37.2915787],[127.0766445,37.2914475],[127.0766191,37.2913167],[127.0764935,37.2912254],[127.0763178,37.2909683],[127.0762334,37.2907923],[127.0762395,37.2906762],[127.0761931,37.2905694],[127.0761179,37.2904404],[127.0760402,37.2903136],[127.0759256,37.2901855],[127.0757906,37.2900287],[127.075616,37.2899157],[127.0754104,37.2897671],[127.0752345,37.2896355],[127.0750858,37.2894894],[127.074875,37.2893849],[127.0746316,37.2892919],[127.0745062,37.2891989],[127.0744398,37.2890565],[127.0744056,37.2889398],[127.0744016,37.2888515],[127.0743089,37.2885257],[127.0738129,37.2881553],[127.0735853,37.2880515],[127.0734122,37.2878514]],[[127.0705314,37.2888948],[127.0705761,37.2889274],[127.0706316,37.2889467],[127.0706919,37.2889506],[127.0707507,37.2889388],[127.0708014,37.2889125],[127.0708389,37.2888743],[127.0708586,37.2888284],[127.0708586,37.28878],[127.0708388,37.2887342],[127.0708013,37.288696],[127.0707502,37.2886697],[127.0706911,37.288658],[127.0706304,37.2886622],[127.0705748,37.2886819],[127.0705303,37.2887149],[127.0705018,37.2887574],[127.0704921,37.288805],[127.0705024,37.2888525],[127.0705314,37.2888948]],[[127.0768617,37.2904455],[127.0768315,37.2904189],[127.0767919,37.2904017],[127.0767473,37.2903959],[127.0767029,37.2904021],[127.0766652,37.2904187],[127.076636,37.2904439],[127.0766183,37.2904752],[127.076614,37.2905093],[127.0766234,37.2905428],[127.0766457,37.2905721],[127.0766785,37.2905944],[127.0767185,37.2906072],[127.0767635,37.2906092],[127.0768068,37.2905992],[127.0768436,37.2905783],[127.0768696,37.290549],[127.0768819,37.2905144],[127.0768792,37.2904786],[127.0768617,37.2904455]],[[127.0769439,37.290115],[127.0769126,37.2900605],[127.0768609,37.2900168],[127.0767943,37.2899887],[127.0767183,37.2899792],[127.0766425,37.28999],[127.0765754,37.29002],[127.0765244,37.2900659],[127.0764951,37.2901226],[127.0764909,37.2901838],[127.0765121,37.2902426],[127.0765565,37.2902927],[127.076619,37.2903284],[127.0766912,37.2903457],[127.0767665,37.2903435],[127.0768369,37.2903222],[127.076895,37.290284],[127.0769346,37.290233],[127.0769515,37.2901746],[127.0769439,37.290115]],[[127.0708855,37.2875806],[127.0709013,37.287539],[127.0708996,37.2874957],[127.0708807,37.287455],[127.0708464,37.2874213],[127.0707985,37.2873974],[127.0707434,37.2873874],[127.0706873,37.2873925],[127.0706363,37.2874119],[127.0705963,37.2874438],[127.0705717,37.2874842],[127.0705655,37.287529],[127.0705779,37.2875728],[127.070608,37.2876109],[127.0706521,37.2876389],[127.0707034,37.2876536],[127.0707579,37.2876544],[127.0708099,37.2876414],[127.070854,37.2876159],[127.0708855,37.2875806]],[[127.0711633,37.2883488],[127.0711498,37.288325],[127.0711275,37.2883059],[127.0710987,37.2882934],[127.0710665,37.2882888],[127.0710327,37.2882931],[127.0710027,37.2883059],[127.0709797,37.288326],[127.0709663,37.288351],[127.0709642,37.2883781],[127.0709734,37.2884043],[127.0709931,37.2884265],[127.0710208,37.2884423],[127.0710536,37.2884499],[127.0710864,37.2884486],[127.0711169,37.2884391],[127.071142,37.2884224],[127.0711592,37.2884001],[127.0711665,37.2883747],[127.0711633,37.2883488]],[[127.0704031,37.2881533],[127.0704093,37.2881184],[127.0704007,37.2880838],[127.0703782,37.2880535],[127.0703443,37.2880308],[127.0703044,37.2880185],[127.0702616,37.2880171],[127.0702205,37.2880266],[127.0701854,37.2880461],[127.07016,37.2880735],[127.070147,37.2881059],[127.0701477,37.28814],[127.070162,37.2881721],[127.0701885,37.2881988],[127.0702244,37.2882174],[127.0702659,37.2882258],[127.07031,37.288223],[127.0703505,37.2882087],[127.0703827,37.2881845],[127.0704031,37.2881533]]]},"properties":{"id":"relation/10744610","name":"신대저수지","kind":"water"}},{"type":"Feature","geometry":{"type":"Polygon","coordinates":[[[127.0617831,37.2857251],[127.0616111,37.2856234],[127.0615484,37.28559],[127.0615,37.2855454],[127.0615679,37.2853502],[127.0614674,37.2852466],[127.0614591,37.2851705],[127.0614386,37.2850946],[127.061301,37.2850196],[127.061089,37.2849792],[127.0608351,37.2847743],[127.0606385,37.2845678],[127.0605133,37.2844231],[127.0603415,37.2842028],[127.060258,37.2840513],[127.0602627,37.2839248],[127.0603791,37.2838431],[127.0604255,37.2836968],[127.0604382,37.2835609],[127.0605953,37.2833561],[127.0605595,37.2831534],[127.0605828,37.283085],[127.0604785,37.282883],[127.060401,37.2828048],[127.0603087,37.2827617],[127.0601413,37.2826846],[127.0600159,37.282517],[127.0599549,37.2823963],[127.0599723,37.2820953],[127.0599427,37.2819115],[127.0599372,37.281689],[127.0599692,37.2815514],[127.0599963,37.2813187],[127.0601521,37.2809707],[127.0602153,37.2807029],[127.0602672,37.2805295],[127.0603244,37.2802281],[127.0602594,37.2801798],[127.0601999,37.2802681],[127.0601022,37.2802312],[127.0601536,37.280132],[127.060117,37.2800274],[127.0601188,37.2799207],[127.0601867,37.2797157],[127.0602865,37.2794468],[127.0603375,37.2793049],[127.0603189,37.2792483],[127.0605176,37.2792889],[127.0605894,37.2791175],[127.0606772,37.2789392],[127.0607149,37.2788109],[127.0607686,37.2787681],[127.0607904,37.2786567],[127.0607159,37.2785276],[127.0607273,37.278454],[127.0607764,37.2782535],[127.0608337,37.2779761],[127.0609286,37.2776361],[127.0610503,37.2773603],[127.0612091,37.2770579],[127.0614055,37.2767385],[127.061616,37.276441],[127.0617057,37.2763505],[127.0619063,37.2761737],[127.0621263,37.2760171],[127.0627753,37.2760313],[127.0628611,37.2760596],[127.0630112,37.2760137],[127.0630861,37.276033],[127.0632466,37.2760374],[127.063455,37.2760077],[127.0636625,37.2759319],[127.0639837,37.2760055],[127.064114,37.2761134],[127.0652007,37.2774803],[127.0652261,37.2778146],[127.0652608,37.2779057],[127.0652927,37.2780314],[127.0653131,37.2781641],[127.0653337,37.2783224],[127.0653572,37.2785225],[127.0652916,37.2786023],[127.065337,37.2789711],[127.0652953,37.2794625],[127.0652882,37.2796857],[127.0651595,37.2798817],[127.0647888,37.2798613],[127.064557,37.2800256],[127.0645147,37.2802562],[127.0646765,37.2804564],[127.0645158,37.2805579],[127.0643765,37.2807022],[127.0642493,37.2809045],[127.0642786,37.281354],[127.0642407,37.2817074],[127.0642805,37.2818421],[127.0642944,37.2818956],[127.0642177,37.2819149],[127.0642459,37.2819982],[127.0643266,37.281987],[127.0643188,37.2821051],[127.0643145,37.282275],[127.0643153,37.2822921],[127.0643159,37.282307],[127.064315,37.2823484],[127.0642188,37.2824341],[127.0641264,37.2825519],[127.0640958,37.2826099],[127.0639465,37.2826912],[127.0637812,37.282845],[127.0636502,37.2829041],[127.0635588,37.2829978],[127.0633965,37.2831014],[127.0631818,37.2832364],[127.0630569,37.2834351],[127.0630846,37.2836645],[127.0631311,37.2838339],[127.0630037,37.2839759],[127.0627615,37.2841167],[127.0626783,37.2843035],[127.0625665,37.2844272],[127.0624539,37.2845979],[127.0622733,37.2847986],[127.062107,37.2850226],[127.0619979,37.2851997],[127.0618951,37.2854068],[127.0618308,37.2856031],[127.0617831,37.2857251]]]},"properties":{"id":"way/480950645","name":"원천저수지","kind":"water"}},{"type":"Feature","geometry":{"type":"Polygon","coordinates":[[[127.0606349,37.2763755],[127.0606563,37.2762919],[127.0606765,37.2762133],[127.0606886,37.276096],[127.060698,37.2759967],[127.060702,37.2759017],[127.0606906,37.2757913],[127.0606792,37.2756937],[127.0606748,37.2756511],[127.061602,37.275339],[127.0615322,37.2752198],[127.0624336,37.2749186],[127.0626511,37.2748724],[127.0629207,37.2748463],[127.063104,37.2748382],[127.0634642,37.2748492],[127.0636521,37.2747663],[127.0643981,37.2748389],[127.064661,37.2737781],[127.0632654,37.273616],[127.0631675,37.2733301],[127.0633786,37.2732313],[127.0650675,37.2730986],[127.0653745,37.2735123],[127.0654643,37.273606],[127.0656722,37.2738789],[127.0658479,37.2741689],[127.0660376,37.2746085],[127.0663776,37.2755773],[127.0673003,37.2790263],[127.067429,37.2794019],[127.0676865,37.2797605],[127.0678796,37.2800337],[127.0682015,37.2803751],[127.0684804,37.2806142],[127.0687486,37.2807561],[127.0690974,37.2809791],[127.0694662,37.2811883],[127.0697956,37.2813256],[127.070197,37.2815361],[127.0720853,37.2823044],[127.0726798,37.2825496],[127.0731997,37.2827641],[127.073244,37.2827824],[127.0741238,37.2831922],[127.0748534,37.2836532],[127.0754327,37.28408],[127.075819,37.2844385],[127.0763125,37.2849336],[127.0766129,37.2853092],[127.0769348,37.2857701],[127.0772137,37.2862482],[127.0774712,37.2868798],[127.0777287,37.2876993],[127.0781149,37.2896284],[127.0782866,37.2905844],[127.0784368,37.2912331],[127.0785655,37.291694],[127.0787573,37.2923363],[127.0787671,37.2925861],[127.0787381,37.292819],[127.078649,37.2930883],[127.0766773,37.2934523],[127.0765485,37.2934779],[127.0764386,37.2929999],[127.0756796,37.2920696],[127.0756427,37.2920137],[127.0755937,37.2919394],[127.0754833,37.2918528],[127.0749457,37.2914602],[127.0744395,37.2911263],[127.0740596,37.2908883],[127.0739068,37.2908914],[127.0738453,37.2907144],[127.0736805,37.2905587],[127.0735827,37.2904497],[127.0735186,37.2903236],[127.0733957,37.2901323],[127.0732248,37.2899463],[127.0728804,37.2897182],[127.0724733,37.2895759],[127.0720453,37.2894263],[127.0715482,37.2892264],[127.0713816,37.2891872],[127.0708408,37.2899773],[127.069324,37.2893491],[127.0680539,37.2888266],[127.0667062,37.2880587],[127.0659075,37.2879053],[127.065901,37.287926],[127.0640161,37.2876059],[127.0639318,37.2875199],[127.0640315,37.2871961],[127.0640247,37.2870074],[127.0640777,37.2869162],[127.0641884,37.2868782],[127.0649563,37.2869516],[127.0652275,37.2869509],[127.0652653,37.2867864],[127.0652281,37.2860809],[127.0649102,37.2858198],[127.0651353,37.285495],[127.065155,37.2853682],[127.0657297,37.2852104],[127.0660486,37.2847447],[127.0659773,37.2839733],[127.0656288,37.28393],[127.0652756,37.283767],[127.0635764,37.2840353],[127.0635809,37.2841412],[127.0635666,37.2842401],[127.0634763,37.2844379],[127.0634499,37.2845718],[127.0634633,37.284654],[127.0635152,37.2847559],[127.0635755,37.2848466],[127.0636193,37.2850259],[127.0636437,37.2856453],[127.063643,37.285864],[127.0636091,37.2860565],[127.0636117,37.2861697],[127.0636384,37.2862729],[127.0635789,37.2862886],[127.063538,37.2862998],[127.0635822,37.2864636],[127.0636254,37.286562],[127.0635956,37.2865711],[127.0635004,37.2863665],[127.0633636,37.2864066],[127.0633028,37.2864987],[127.0632279,37.286585],[127.0630907,37.2866408],[127.0629688,37.2866713],[127.0617243,37.2866402],[127.0617216,37.2871789],[127.0616195,37.2871412],[127.061158,37.2869246],[127.0609367,37.2867966],[127.0607423,37.2866558],[127.0602577,37.2862285],[127.0614034,37.2854083],[127.0609,37.2850755],[127.0606962,37.2848551],[127.0605447,37.2846844],[127.0599706,37.2850514],[127.0594708,37.2846162],[127.0594084,37.2845619],[127.0593839,37.2845406],[127.0593993,37.2845083],[127.0583465,37.2836228],[127.0582864,37.2835723],[127.0589747,37.2830514],[127.0590712,37.2829489],[127.059137,37.2828454],[127.0592242,37.2826907],[127.0592805,37.2825434],[127.059318,37.2824197],[127.0593448,37.2822788],[127.0593663,37.2820611],[127.05937,37.281367],[127.0593712,37.281145],[127.0593717,37.2810517],[127.0593931,37.2807935],[127.0594145,37.2805843],[127.0594307,37.2804733],[127.0594655,37.2803026],[127.0594991,37.2801574],[127.0595326,37.2800593],[127.0595862,37.2799355],[127.0597096,37.2797093],[127.0598196,37.2795236],[127.0599336,37.2793454],[127.0599537,37.2793111],[127.0600335,37.2791752],[127.0601532,37.2789705],[127.0601738,37.2789195],[127.0602273,37.2787873],[127.0602702,37.2786422],[127.060301,37.2783764],[127.0603158,37.2781577],[127.0603024,37.2778802],[127.0603068,37.2777573],[127.0603078,37.2777308],[127.0603126,37.2776449],[127.0603239,37.2774427],[127.0603359,37.2772976],[127.0603641,37.2770927],[127.0604043,37.2769198],[127.0604499,37.2767896],[127.0605076,37.2766424],[127.0605545,37.2765502],[127.060576,37.2765079],[127.0606349,37.2763755]]]},"properties":{"id":"way/480953426","name":"광교호수공원","kind":"park"}}]}