{"type":"FeatureCollection","features":[{"type":"Feature","geometry":{"type":"Polygon","coordinates":[[[127.069196,37.2879195],[127.0691588,37.2879097],[127.0691392,37.2878695],[127.0691582,37.2878397],[127.0692019,37.287827],[127.0692374,37.2878421],[127.0692536,37.2878818],[127.0692365,37.2879072],[127.069196,37.2879195]]]},"properties":{"id":"way/589631539","kind":"pavilion","height":3.5,"heightSource":"estimated","name":null}},{"type":"Feature","geometry":{"type":"Polygon","coordinates":[[[127.0761363,37.2947571],[127.0761309,37.2947379],[127.0761604,37.2947315],[127.0761739,37.2947507],[127.0761363,37.2947571]]]},"properties":{"id":"way/727830241","kind":"pavilion","height":3.5,"heightSource":"estimated","name":null}},{"type":"Feature","geometry":{"type":"Polygon","coordinates":[[[127.071752,37.2858333],[127.071771,37.2858889],[127.0717181,37.2859003],[127.0716991,37.2858448],[127.071752,37.2858333]]]},"properties":{"id":"way/997690254","kind":"pavilion","height":3.5,"heightSource":"estimated","name":null}},{"type":"Feature","geometry":{"type":"Polygon","coordinates":[[[127.0673217,37.2877181],[127.0673833,37.2876135],[127.0674235,37.2876285],[127.0673619,37.2877331],[127.0673217,37.2877181]]]},"properties":{"id":"way/997690255","kind":"pavilion","height":3.5,"heightSource":"estimated","name":null}},{"type":"Feature","geometry":{"type":"Polygon","coordinates":[[[127.0645129,37.2911199],[127.0645131,37.2910871],[127.0645796,37.2910875],[127.0645794,37.2911202],[127.0645129,37.2911199]]]},"properties":{"id":"way/997690914","kind":"pavilion","height":3.5,"heightSource":"estimated","name":null}}]}