{"type":"FeatureCollection","features":[{"type":"Feature","geometry":{"type":"Point","coordinates":[127.0622902,37.2758024]},"properties":{"id":"node/5609628319","height":8,"crownRadius":3,"heightSource":"estimated","species":null}},{"type":"Feature","geometry":{"type":"Point","coordinates":[127.0623701,37.275759]},"properties":{"id":"node/5609628320","height":8,"crownRadius":3,"heightSource":"estimated","species":null}},{"type":"Feature","geometry":{"type":"Point","coordinates":[127.0624576,37.2757186]},"properties":{"id":"node/5609630421","height":8,"crownRadius":3,"heightSource":"estimated","species":null}},{"type":"Feature","geometry":{"type":"Point","coordinates":[127.0625545,37.2757004]},"properties":{"id":"node/5609630422","height":8,"crownRadius":3,"heightSource":"estimated","species":null}},{"type":"Feature","geometry":{"type":"Point","coordinates":[127.0627342,37.2756449]},"properties":{"id":"node/5609630424","height":8,"crownRadius":3,"heightSource":"estimated","species":null}},{"type":"Feature","geometry":{"type":"Point","coordinates":[127.0628227,37.2756236]},"properties":{"id":"node/5609630425","height":8,"crownRadius":3,"heightSource":"estimated","species":null}},{"type":"Feature","geometry":{"type":"Point","coordinates":[127.0629192,37.2756044]},"properties":{"id":"node/5609630426","height":8,"crownRadius":3,"heightSource":"estimated","species":null}},{"type":"Feature","geometry":{"type":"Point","coordinates":[127.0630292,37.2755788]},"properties":{"id":"node/5609630427","height":8,"crownRadius":3,"heightSource":"estimated","species":null}}]}